STARLINK-30092          
1 57467U 23107L   26068.08801585 -.00004529  00000+0 -15913-3 0  9992
2 57467  43.0022 339.6211 0002381 265.1319  94.9260 15.26757276145051
FLOCK 4G-18             
1 62680U 25009BZ  26068.19114186  .00011766  00000+0  44319-3 0  9995
2 62680  97.4054 150.5008 0004100 335.7331  24.3715 15.27241676121267
